{"type": "FeatureCollection", "features": [ {"type": "Feature", "properties": {"norad_id": 43010, "name": "FENGYUN 3D", "group": "weather", "lat": 77.14078838368384, "lon": 178.4712188134856, "alt_km": 818.982019998155, "timestamp": "2025-12-14T05:42:18.099367+00:00", "meta": {"OBJECT_NAME": "FENGYUN 3D", "OBJECT_ID": "2017-072A", "EPOCH": "2025-12-13T15:42:27.712224", "MEAN_MOTION": 14.19684418, "ECCENTRICITY": 9.643e-05, "INCLINATION": 98.9893, "RA_OF_ASC_NODE": 313.9783, "ARG_OF_PERICENTER": 178.5734, "MEAN_ANOMALY": 181.5444, "EPHEMERIS_TYPE": 0, "CLASSIFICATION_TYPE": "U", "NORAD_CAT_ID": 43010, "ELEMENT_SET_NO": 999, "REV_AT_EPOCH": 41866, "BSTAR": 9.3328079e-05, "MEAN_MOTION_DOT": 1.51e-06, "MEAN_MOTION_DDOT": 0}, "tle": {"line1": "1 43010U 17072A   25347.65448741  .00000151  00000+0  93328-4 0  9990", "line2": "2 43010  98.9893 313.9783 0000964 178.5734 181.5444 14.19684418418662"}}, "geometry": {"type": "Point", "coordinates": [178.4712188134856, 77.14078838368384]}}, {"type": "Feature", "properties": {"norad_id": 43013, "name": "NOAA 20 (JPSS-1)", "group": "weather", "lat": -68.89450479312723, "lon": 80.97238156779223, "alt_km": 835.6916050434038, "timestamp": "2025-12-14T05:42:18.099378+00:00", "meta": {"OBJECT_NAME": "NOAA 20 (JPSS-1)", "OBJECT_ID": "2017-073A", "EPOCH": "2025-12-13T16:41:10.177152", "MEAN_MOTION": 14.19526035, "ECCENTRICITY": 0.0002139, "INCLINATION": 98.7599, "RA_OF_ASC_NODE": 283.9815, "ARG_OF_PERICENTER": 86.0085, "MEAN_ANOMALY": 274.1335, "EPHEMERIS_TYPE": 0, "CLASSIFICATION_TYPE": "U", "NORAD_CAT_ID": 43013, "ELEMENT_SET_NO": 999, "REV_AT_EPOCH": 41815, "BSTAR": 8.4766976e-05, "MEAN_MOTION_DOT": 1.35e-06, "MEAN_MOTION_DDOT": 0}, "tle": {"line1": "1 43013U 17073A   25347.69525668  .00000135  00000+0  84767-4 0  9991", "line2": "2 43013  98.7599 283.9815 0002139  86.0085 274.1335 14.19526035418158"}}, "geometry": {"type": "Point", "coordinates": [80.97238156779223, -68.89450479312723]}}, {"type": "Feature", "properties": {"norad_id": 43226, "name": "GOES 17", "group": "weather", "lat": -0.05873899208899014, "lon": 79.24442451898217, "alt_km": 35799.112432615504, "timestamp": "2025-12-14T05:42:18.099391+00:00", "meta": {"OBJECT_NAME": "GOES 17", "OBJECT_ID": "2018-022A", "EPOCH": "2025-12-13T14:44:05.876160", "MEAN_MOTION": 1.0027174, "ECCENTRICITY": 0.00032344, "INCLINATION": 0.4622, "RA_OF_ASC_NODE": 89.1044, "ARG_OF_PERICENTER": 188.7594, "MEAN_ANOMALY": 296.2116, "EPHEMERIS_TYPE": 0, "CLASSIFICATION_TYPE": "U", "NORAD_CAT_ID": 43226, "ELEMENT_SET_NO": 999, "REV_AT_EPOCH": 2856, "BSTAR": 0, "MEAN_MOTION_DOT": -1.67e-06, "MEAN_MOTION_DDOT": 0}, "tle": {"line1": "1 43226U 18022A   25347.61395690 -.00000167  00000+0  00000+0 0  9993", "line2": "2 43226   0.4622  89.1044 0003234 188.7594 296.2116  1.00271740 28563"}}, "geometry": {"type": "Point", "coordinates": [79.24442451898217, -0.05873899208899014]}}, {"type": "Feature", "properties": {"norad_id": 43491, "name": "FENGYUN 2H", "group": "weather", "lat": 0.5634507009943114, "lon": -111.90195927743991, "alt_km": 35774.56226159688, "timestamp": "2025-12-14T05:42:18.099413+00:00", "meta": {"OBJECT_NAME": "FENGYUN 2H", "OBJECT_ID": "2018-050A", "EPOCH": "2025-12-13T17:21:38.913120", "MEAN_MOTION": 1.00271249, "ECCENTRICITY": 0.00027438, "INCLINATION": 2.5537, "RA_OF_ASC_NODE": 81.3191, "ARG_OF_PERICENTER": 167.3086, "MEAN_ANOMALY": 173.794, "EPHEMERIS_TYPE": 0, "CLASSIFICATION_TYPE": "U", "NORAD_CAT_ID": 43491, "ELEMENT_SET_NO": 999, "REV_AT_EPOCH": 2757, "BSTAR": 0, "MEAN_MOTION_DOT": -1.15e-06, "MEAN_MOTION_DDOT": 0}, "tle": {"line1": "1 43491U 18050A   25347.72336705 -.00000115  00000+0  00000+0 0  9995", "line2": "2 43491   2.5537  81.3191 0002743 167.3086 173.7940  1.00271249 27573"}}, "geometry": {"type": "Point", "coordinates": [-111.90195927743991, 0.5634507009943114]}}, {"type": "Feature", "properties": {"norad_id": 43689, "name": "METOP-C", "group": "weather", "lat": 41.55360182915325, "lon": 38.19044816463528, "alt_km": 816.0829158315955, "timestamp": "2025-12-14T05:42:18.099425+00:00", "meta": {"OBJECT_NAME": "METOP-C", "OBJECT_ID": "2018-087A", "EPOCH": "2025-12-13T15:59:34.205568", "MEAN_MOTION": 14.21484873, "ECCENTRICITY": 0.00012051, "INCLINATION": 98.693, "RA_OF_ASC_NODE": 45.422, "ARG_OF_PERICENTER": 37.7199, "MEAN_ANOMALY": 322.4063, "EPHEMERIS_TYPE": 0, "CLASSIFICATION_TYPE": "U", "NORAD_CAT_ID": 43689, "ELEMENT_SET_NO": 999, "REV_AT_EPOCH": 36847, "BSTAR": 0.00011677949, "MEAN_MOTION_DOT": 2.12e-06, "MEAN_MOTION_DDOT": 0}, "tle": {"line1": "1 43689U 18087A   25347.66636812  .00000212  00000+0  11678-3 0  9993", "line2": "2 43689  98.6930  45.4220 0001205  37.7199 322.4063 14.21484873368478"}}, "geometry": {"type": "Point", "coordinates": [38.19044816463528, 41.55360182915325]}}, {"type": "Feature", "properties": {"norad_id": 43823, "name": "GEO-KOMPSAT-2A", "group": "weather", "lat": -0.005673345568891457, "lon": -62.99946998426946, "alt_km": 35787.58685753695, "timestamp": "2025-12-14T05:42:18.099437+00:00", "meta": {"OBJECT_NAME": "GEO-KOMPSAT-2A", "OBJECT_ID": "2018-100A", "EPOCH": "2025-12-13T15:46:14.922624", "MEAN_MOTION": 1.00273445, "ECCENTRICITY": 4.478e-05, "INCLINATION": 0.0446, "RA_OF_ASC_NODE": 143.3746, "ARG_OF_PERICENTER": 336.2341, "MEAN_ANOMALY": 327.8119, "EPHEMERIS_TYPE": 0, "CLASSIFICATION_TYPE": "U", "NORAD_CAT_ID": 43823, "ELEMENT_SET_NO": 999, "REV_AT_EPOCH": 2576, "BSTAR": 0, "MEAN_MOTION_DOT": -3.28e-06, "MEAN_MOTION_DDOT": 0}, "tle": {"line1": "1 43823U 18100A   25347.65711716 -.00000328  00000+0  00000+0 0  9997", "line2": "2 43823   0.0446 143.3746 0000447 336.2341 327.8119  1.00273445 25768"}}, "geometry": {"type": "Point", "coordinates": [-62.99946998426946, -0.005673345568891457]}}, {"type": "Feature", "properties": {"norad_id": 44387, "name": "METEOR-M2 2", "group": "weather", "lat": 47.714961329918765, "lon": 157.9030980869953, "alt_km": 805.6725892582999, "timestamp": "2025-12-14T05:42:18.099448+00:00", "meta": {"OBJECT_NAME": "METEOR-M2 2", "OBJECT_ID": "2019-038A", "EPOCH": "2025-12-13T15:36:07.440768", "MEAN_MOTION": 14.24291939, "ECCENTRICITY": 0.00012867, "INCLINATION": 98.8974, "RA_OF_ASC_NODE": 327.3899, "ARG_OF_PERICENTER": 144.5572, "MEAN_ANOMALY": 215.5692, "EPHEMERIS_TYPE": 0, "CLASSIFICATION_TYPE": "U", "NORAD_CAT_ID": 44387, "ELEMENT_SET_NO": 999, "REV_AT_EPOCH": 33488, "BSTAR": 0.00014609027, "MEAN_MOTION_DOT": 2.92e-06, "MEAN_MOTION_DDOT": 0}, "tle": {"line1": "1 44387U 19038A   25347.65008612  .00000292  00000+0  14609-3 0  9991", "line2": "2 44387  98.8974 327.3899 0001286 144.5572 215.5692 14.24291939334889"}}, "geometry": {"type": "Point", "coordinates": [157.9030980869953, 47.714961329918765]}}, {"type": "Feature", "properties": {"norad_id": 47719, "name": "ARKTIKA-M 1", "group": "weather", "lat": 60.95414925010997, "lon": 149.3366835077438, "alt_km": 37327.9957146116, "timestamp": "2025-12-14T05:42:18.099465+00:00", "meta": {"OBJECT_NAME": "ARKTIKA-M 1", "OBJECT_ID": "2021-016A", "EPOCH": "2025-12-09T14:03:23.859648", "MEAN_MOTION": 2.00631311, "ECCENTRICITY": 0.7202538, "INCLINATION": 63.1769, "RA_OF_ASC_NODE": 84.4506, "ARG_OF_PERICENTER": 269.1116, "MEAN_ANOMALY": 15.6235, "EPHEMERIS_TYPE": 0, "CLASSIFICATION_TYPE": "U", "NORAD_CAT_ID": 47719, "ELEMENT_SET_NO": 999, "REV_AT_EPOCH": 3498, "BSTAR": 0, "MEAN_MOTION_DOT": -6.1e-07, "MEAN_MOTION_DDOT": 0}, "tle": {"line1": "1 47719U 21016A   25343.58569282 -.00000061  00000+0  00000+0 0  9996", "line2": "2 47719  63.1769  84.4506 7202538 269.1116  15.6235  2.00631311 34985"}}, "geometry": {"type": "Point", "coordinates": [149.3366835077438, 60.95414925010997]}}, {"type": "Feature", "properties": {"norad_id": 49008, "name": "FENGYUN 3E", "group": "weather", "lat": 65.38644649548313, "lon": -30.898756542982277, "alt_km": 819.7275474469488, "timestamp": "2025-12-14T05:42:18.099478+00:00", "meta": {"OBJECT_NAME": "FENGYUN 3E", "OBJECT_ID": "2021-062A", "EPOCH": "2025-12-13T15:51:40.165056", "MEAN_MOTION": 14.19878819, "ECCENTRICITY": 5.362e-05, "INCLINATION": 98.748, "RA_OF_ASC_NODE": 348.171, "ARG_OF_PERICENTER": 262.3082, "MEAN_ANOMALY": 97.8033, "EPHEMERIS_TYPE": 0, "CLASSIFICATION_TYPE": "U", "NORAD_CAT_ID": 49008, "ELEMENT_SET_NO": 999, "REV_AT_EPOCH": 23025, "BSTAR": -7.8544314e-05, "MEAN_MOTION_DOT": -2.11e-06, "MEAN_MOTION_DDOT": 0}, "tle": {"line1": "1 49008U 21062A   25347.66088154 -.00000211  00000+0 -78544-4 0  9998", "line2": "2 49008  98.7480 348.1710 0000536 262.3082  97.8033 14.19878819230258"}}, "geometry": {"type": "Point", "coordinates": [-30.898756542982277, 65.38644649548313]}}, {"type": "Feature", "properties": {"norad_id": 51850, "name": "GOES 18", "group": "weather", "lat": 0.0033444636805160513, "lon": 31.742160579002558, "alt_km": 35784.76153273666, "timestamp": "2025-12-14T05:42:18.099493+00:00", "meta": {"OBJECT_NAME": "GOES 18", "OBJECT_ID": "2022-021A", "EPOCH": "2025-12-13T14:30:37.166976", "MEAN_MOTION": 1.00273224, "ECCENTRICITY": 6.711e-05, "INCLINATION": 0.0132, "RA_OF_ASC_NODE": 218.5948, "ARG_OF_PERICENTER": 100.9358, "MEAN_ANOMALY": 203.6651, "EPHEMERIS_TYPE": 0, "CLASSIFICATION_TYPE": "U", "NORAD_CAT_ID": 51850, "ELEMENT_SET_NO": 999, "REV_AT_EPOCH": 473, "BSTAR": 0, "MEAN_MOTION_DOT": 1.12e-06, "MEAN_MOTION_DDOT": 0}, "tle": {"line1": "1 51850U 22021A   25347.60459684  .00000112  00000+0  00000+0 0  9991", "line2": "2 51850   0.0132 218.5948 0000671 100.9358 203.6651  1.00273224  4732"}}, "geometry": {"type": "Point", "coordinates": [31.742160579002558, 0.0033444636805160513]}}]}